BEESAT-4                
1 41619U 16040W   21240.40705788  .00005862  00000-0  23104-3 0  9994
2 41619  97.2632 294.4745 0012304  79.7846 280.4779 15.25887591275987
CAS-2T & KS-1Q          
1 41847U 16066G   21240.41178448  .00000243  00000-0  46862-4 0  9998
2 41847  98.5953 299.8144 0365224   5.7716 354.7509 14.38229590252229
NAYIF-1 (EO-88)         
1 42017U 17008BX  21240.12040357  .00004743  00000-0  17323-3 0  9998
2 42017  97.3102 306.4360 0005289 197.4959 162.6100 15.28577077252204
ZHUHAI-1 02 (CAS-4B)    
1 42759U 17034B   21240.46481147  .00000569  00000-0  47418-4 0  9994
2 42759  43.0173 145.1560 0009522 259.7278 270.7077 15.10323551232033
ZHUHAI-1 01 (CAS-4A)    
1 42761U 17034D   21240.63254968  .00000462  00000-0  40906-4 0  9992
2 42761  43.0178 143.2324 0009880 262.5613 172.9000 15.10410832232061
MAX VALIER SAT          
1 42778U 17036P   21240.08163612  .00002056  00000-0  88043-4 0  9991
2 42778  97.2493 286.3311 0009973 285.7663  74.2475 15.23850039232195
RADFXSAT (FOX-1B)       
1 43017U 17073E   21240.22146346  .00002189  00000-0  17126-3 0  9990
2 43017  97.6985 141.3413 0256000  66.3137 296.4714 14.79670508203732
FOX-1D (AO-92)          
1 43137U 18004AC  21240.16357818  .00003259  00000-0  13134-3 0  9993
2 43137  97.4023 313.4587 0007677 328.0786  31.9986 15.25528261201597
DIWATA-2B               
1 43678U 18084H   21240.49299753 -.00000300  00000-0 -24011-4 0  9993
2 43678  97.9337   6.1800 0009982 164.6473 195.5048 14.91774702154174
ES'HAIL 2               
1 43700U 18090A   21240.39979946  .00000138  00000-0  00000-0 0  9999
2 43700   0.0153 146.5595 0002063  46.9594 313.0538  1.00270188 10098
FOX-1CLIFF (AO-95)      
1 43770U 18099N   21240.18269715  .00000709  00000-0  69208-4 0  9991
2 43770  97.6599 308.7712 0014714 172.3935 187.7512 14.95399479149176
ITASAT 1                
1 43786U 18099AE  21240.15499006  .00001023  00000-0  96861-4 0  9998
2 43786  97.6624 309.4721 0015526 165.0661 195.1022 14.95687228149202
JY1SAT (JO-97)          
1 43803U 18099AX  21240.17353916  .00000555  00000-0  54510-4 0  9993
2 43803  97.6583 309.2346 0015379 165.4394 194.7274 14.95947408149214
UWE-4                   
1 43880U 18111E   21240.24262153  .00000769  00000-0  71860-4 0  9997
2 43880  97.6806 146.7336 0010822 218.2681 141.7774 14.96958943145821
NEXUS (FO-99)           
1 43937U 19003F   21240.39106127  .00005301  00000-0  20667-3 0  9990
2 43937  97.1709 280.6821 0024695 115.6047 244.7748 15.26072462145234
PSAT2 (NO-104)          
1 44354U 19036R   21238.47366071  .00010476  00000-0  13215-3 0  9992
2 44354  28.5302  19.3718 0316514 316.6496  40.9601 15.15830599119609
BRICSAT2 (NO-103)       
1 44355U 19036S   21239.52066792  .00031256 -55894-5  30188-3 0  9991
2 44355  28.5246 314.6599 0245623  62.1209 300.4042 15.34625985120340
JAISAT-1                
1 44419U 19038F   21240.42027540  .00002919  00000-0  16364-3 0  9990
2 44419  97.5946 204.8890 0022582  65.9624 294.3968 15.13977570118686
DUCHIFAT-3              
1 44854U 19089C   21239.70822297  .00000503  00000-0  46493-4 0  9994
2 44854  36.9662  39.2199 0009276 347.7446  12.3063 14.99586194 93802
CAS-6 (TO-108)          
1 44881U 19093C   21240.46700476  .00000090  00000-0  18282-4 0  9994
2 44881  97.9214 318.5018 0016368  61.5217 298.7648 14.81474072 91395
RS-44 & BREEZE-KM R/B   
1 44909U 19096E   21240.24166451 -.00000007  00000-0 -66424-4 0  9994
2 44909  82.5177  65.1043 0216435 285.3599  72.3681 12.79710499 78000
ORBITAL FACTORY 2 (OF-2)
1 45113U 19071C   21240.16687846  .00008414  00000-0  24411-3 0  9999
2 45113  51.6425  49.6633 0011695 190.2867 169.7878 15.36310985 88198
HUSKYSAT-1 (HO-107)     
1 45119U 19071J   21240.37308860  .00007721  00000-0  22505-3 0  9996
2 45119  51.6420  48.0329 0011137 187.2930 172.7893 15.36298720 88229
BY70-2                  
1 45857U 20042B   21240.44936103  .00001135  00000-0  16737-3 0  9993
2 45857  97.9816 315.4490 0010315 350.4986   9.6053 14.77218454 62174
SALSAT                  
1 46495U 20068K   21240.47168961 -.00000051  00000-0  85321-6 0  9997
2 46495  97.6964 177.5539 0016222 181.6467 178.4713 15.03523671 50159
BY70-3                  
1 46839U 20079N   21240.47265990  .00003536  00000-0  10920-3 0  9991
2 46839  97.2368 312.9073 0005606 317.2988 169.7166 15.34178320 45242
RADFXSAT-2 (AO-109)     
1 47311U 21002C   21240.10661577  .00002027  00000-0  98455-4 0  9999
2 47311  60.6865  22.9199 0041661  85.0191 275.5649 15.21901864 33778
UVSQ-SAT                
1 47438U 21006AB  21240.39281951  .00002199  00000-0  12699-3 0  9993
2 47438  97.4816 300.3139 0012042 202.8483 157.2214 15.13305840 32937
DIY-1 (ARDUIQUBE)       
1 47963U 21022AH  21240.25181212  .00005848  00000-0  38643-3 0  9999
2 47963  97.5508 141.3051 0021444  61.5289 298.8095 15.07592128 22719
